{
  "type": "FeatureCollection",
  "features": [
    {
      "type": "Feature",
      "properties": {
        "norad_id": 38867,
        "name": "INTELSAT 23 (IS-23)",
        "group": "intelsat",
        "lat": -0.013100000540152383,
        "lon": -94.0662738044281,
        "alt_km": 35786.42928539578,
        "timestamp": "2025-12-11T15:53:39.210099+00:00",
        "meta_object_name": "INTELSAT 23 (IS-23)",
        "meta_object_id": "2012-057A",
        "meta_epoch": "2025-12-09T20:10:10.491744",
        "meta_mean_motion": 1.00260311,
        "meta_eccentricity": 0.00020064,
        "meta_inclination": 0.0432,
        "meta_ra_of_asc_node": 94.7791,
        "meta_arg_of_pericenter": 102.2636,
        "meta_mean_anomaly": 131.2856,
        "meta_ephemeris_type": 0,
        "meta_classification_type": "U",
        "meta_norad_cat_id": 38867,
        "meta_element_set_no": 999,
        "meta_rev_at_epoch": 4805,
        "meta_bstar": 0,
        "meta_mean_motion_dot": -2.82e-06,
        "meta_mean_motion_ddot": 0,
        "tle_line1": "1 38867U 12057A   25343.84039921 -.00000282  00000+0  00000+0 0  9991",
        "tle_line2": "2 38867   0.0432  94.7791 0002006 102.2636 131.2856  1.00260311 48055"
      },
      "geometry": {
        "type": "Point",
        "coordinates": [
          -94.0662738044281,
          -0.013100000540152383
        ]
      }
    },
    {
      "type": "Feature",
      "properties": {
        "norad_id": 39360,
        "name": "FM-6",
        "group": "intelsat",
        "lat": -0.002936941194951123,
        "lon": -157.1200115061714,
        "alt_km": 35776.27650853746,
        "timestamp": "2025-12-11T15:53:39.210111+00:00",
        "meta_object_name": "FM-6",
        "meta_object_id": "2013-058A",
        "meta_epoch": "2025-12-10T23:15:42.718752",
        "meta_mean_motion": 1.00269361,
        "meta_eccentricity": 0.00028563,
        "meta_inclination": 0.0087,
        "meta_ra_of_asc_node": 66.7059,
        "meta_arg_of_pericenter": 106.8032,
        "meta_mean_anomaly": 139.1966,
        "meta_ephemeris_type": 0,
        "meta_classification_type": "U",
        "meta_norad_cat_id": 39360,
        "meta_element_set_no": 999,
        "meta_rev_at_epoch": 4418,
        "meta_bstar": 0,
        "meta_mean_motion_dot": -1.1e-07,
        "meta_mean_motion_ddot": 0,
        "tle_line1": "1 39360U 13058A   25344.96924443 -.00000011  00000+0  00000+0 0  9998",
        "tle_line2": "2 39360   0.0087  66.7059 0002856 106.8032 139.1966  1.00269361 44182"
      },
      "geometry": {
        "type": "Point",
        "coordinates": [
          -157.1200115061714,
          -0.002936941194951123
        ]
      }
    },
    {
      "type": "Feature",
      "properties": {
        "norad_id": 40271,
        "name": "INTELSAT 30 (IS-30)",
        "group": "intelsat",
        "lat": -0.016889819718861877,
        "lon": -136.03658173651777,
        "alt_km": 35791.171469759174,
        "timestamp": "2025-12-11T15:53:39.210122+00:00",
        "meta_object_name": "INTELSAT 30 (IS-30)",
        "meta_object_id": "2014-062A",
        "meta_epoch": "2025-12-10T19:56:16.820736",
        "meta_mean_motion": 1.00269622,
        "meta_eccentricity": 0.0001301,
        "meta_inclination": 0.0174,
        "meta_ra_of_asc_node": 29.1064,
        "meta_arg_of_pericenter": 50.969,
        "meta_mean_anomaly": 203.7271,
        "meta_ephemeris_type": 0,
        "meta_classification_type": "U",
        "meta_norad_cat_id": 40271,
        "meta_element_set_no": 999,
        "meta_rev_at_epoch": 489,
        "meta_bstar": 0,
        "meta_mean_motion_dot": -1.46e-06,
        "meta_mean_motion_ddot": 0,
        "tle_line1": "1 40271U 14062A   25344.83075024 -.00000146  00000+0  00000+0 0  9994",
        "tle_line2": "2 40271   0.0174  29.1064 0001301  50.9690 203.7271  1.00269622  4895"
      },
      "geometry": {
        "type": "Point",
        "coordinates": [
          -136.03658173651777,
          -0.016889819718861877
        ]
      }
    },
    {
      "type": "Feature",
      "properties": {
        "norad_id": 40333,
        "name": "DIRECTV 14",
        "group": "intelsat",
        "lat": -0.03246619865108577,
        "lon": -140.1858470247535,
        "alt_km": 35784.601437724996,
        "timestamp": "2025-12-11T15:53:39.210134+00:00",
        "meta_object_name": "DIRECTV 14",
        "meta_object_id": "2014-078B",
        "meta_epoch": "2025-12-10T23:20:34.751616",
        "meta_mean_motion": 1.00270629,
        "meta_eccentricity": 5.243e-05,
        "meta_inclination": 0.0172,
        "meta_ra_of_asc_node": 324.7094,
        "meta_arg_of_pericenter": 220.9679,
        "meta_mean_anomaly": 145.1924,
        "meta_ephemeris_type": 0,
        "meta_classification_type": "U",
        "meta_norad_cat_id": 40333,
        "meta_element_set_no": 999,
        "meta_rev_at_epoch": 4015,
        "meta_bstar": 0,
        "meta_mean_motion_dot": -1.2e-06,
        "meta_mean_motion_ddot": 0,
        "tle_line1": "1 40333U 14078B   25344.97262444 -.00000120  00000+0  00000+0 0  9991",
        "tle_line2": "2 40333   0.0172 324.7094 0000524 220.9679 145.1924  1.00270629 40153"
      },
      "geometry": {
        "type": "Point",
        "coordinates": [
          -140.1858470247535,
          -0.03246619865108577
        ]
      }
    },
    {
      "type": "Feature",
      "properties": {
        "norad_id": 40663,
        "name": "DIRECTV 15",
        "group": "intelsat",
        "lat": 0.012559073892898063,
        "lon": -143.83590519672546,
        "alt_km": 35785.09928508048,
        "timestamp": "2025-12-11T15:53:39.210146+00:00",
        "meta_object_name": "DIRECTV 15",
        "meta_object_id": "2015-026A",
        "meta_epoch": "2025-12-10T23:19:34.847904",
        "meta_mean_motion": 1.00272611,
        "meta_eccentricity": 2.214e-05,
        "meta_inclination": 0.0411,
        "meta_ra_of_asc_node": 85.413,
        "meta_arg_of_pericenter": 166.5843,
        "meta_mean_anomaly": 74.9718,
        "meta_ephemeris_type": 0,
        "meta_classification_type": "U",
        "meta_norad_cat_id": 40663,
        "meta_element_set_no": 999,
        "meta_rev_at_epoch": 3857,
        "meta_bstar": 0,
        "meta_mean_motion_dot": -9.7e-07,
        "meta_mean_motion_ddot": 0,
        "tle_line1": "1 40663U 15026A   25344.97193111 -.00000097  00000+0  00000+0 0  9998",
        "tle_line2": "2 40663   0.0411  85.4130 0000221 166.5843  74.9718  1.00272611 38575"
      },
      "geometry": {
        "type": "Point",
        "coordinates": [
          -143.83590519672546,
          0.012559073892898063
        ]
      }
    },
    {
      "type": "Feature",
      "properties": {
        "norad_id": 40664,
        "name": "SKY MEXICO-1",
        "group": "intelsat",
        "lat": -0.010232116777374473,
        "lon": -119.76344376834744,
        "alt_km": 35777.3507076647,
        "timestamp": "2025-12-11T15:53:39.210157+00:00",
        "meta_object_name": "SKY MEXICO-1",
        "meta_object_id": "2015-026B",
        "meta_epoch": "2025-12-11T04:34:36.118848",
        "meta_mean_motion": 1.00270496,
        "meta_eccentricity": 0.00026928,
        "meta_inclination": 0.0323,
        "meta_ra_of_asc_node": 73.3135,
        "meta_arg_of_pericenter": 203.708,
        "meta_mean_anomaly": 153.0124,
        "meta_ephemeris_type": 0,
        "meta_classification_type": "U",
        "meta_norad_cat_id": 40664,
        "meta_element_set_no": 999,
        "meta_rev_at_epoch": 3856,
        "meta_bstar": 0,
        "meta_mean_motion_dot": -2.28e-06,
        "meta_mean_motion_ddot": 0,
        "tle_line1": "1 40664U 15026B   25345.19069582 -.00000228  00000+0  00000+0 0  9994",
        "tle_line2": "2 40664   0.0323  73.3135 0002692 203.7080 153.0124  1.00270496 38568"
      },
      "geometry": {
        "type": "Point",
        "coordinates": [
          -119.76344376834744,
          -0.010232116777374473
        ]
      }
    },
    {
      "type": "Feature",
      "properties": {
        "norad_id": 40874,
        "name": "INTELSAT 34 (IS-34)",
        "group": "intelsat",
        "lat": -0.028529618208214917,
        "lon": -96.4716880030848,
        "alt_km": 35787.12030105573,
        "timestamp": "2025-12-11T15:53:39.210169+00:00",
        "meta_object_name": "INTELSAT 34 (IS-34)",
        "meta_object_id": "2015-039A",
        "meta_epoch": "2025-12-11T04:41:12.985152",
        "meta_mean_motion": 1.00269816,
        "meta_eccentricity": 4.668e-05,
        "meta_inclination": 0.0139,
        "meta_ra_of_asc_node": 324.1286,
        "meta_arg_of_pericenter": 196.8091,
        "meta_mean_anomaly": 294.0237,
        "meta_ephemeris_type": 0,
        "meta_classification_type": "U",
        "meta_norad_cat_id": 40874,
        "meta_element_set_no": 999,
        "meta_rev_at_epoch": 3774,
        "meta_bstar": 0,
        "meta_mean_motion_dot": -2.79e-06,
        "meta_mean_motion_ddot": 0,
        "tle_line1": "1 40874U 15039A   25345.19528918 -.00000279  00000+0  00000+0 0  9990",
        "tle_line2": "2 40874   0.0139 324.1286 0000466 196.8091 294.0237  1.00269816 37745"
      },
      "geometry": {
        "type": "Point",
        "coordinates": [
          -96.4716880030848,
          -0.028529618208214917
        ]
      }
    }
  ]
}